start=new Date('2021-09-26T00:00:00.000Z').valueOf();
sats=[{"MEAN_MOTION_DOT":"-0.00000039","CENTER_NAME":"EARTH","ELEMENT_SET_NO":"999","MEAN_MOTION_DDOT":"0.0000000000000","GP_ID":"185506354","CLASSIFICATION_TYPE":"U","APOAPSIS":"548.526","EPOCH":"2021-09-25T16:33:48.585024","FILE":"3128274","REV_AT_EPOCH":"5160","SITE":"AFETR","INCLINATION":"53.0551","TIME_SYSTEM":"UTC","LAUNCH_DATE":"2020-10-24","OBJECT_TYPE":"PAYLOAD","OBJECT_ID":"2020-074BH","EPHEMERIS_TYPE":"0","COUNTRY_CODE":"US","OBJECT_NAME":"STARLINK-1942","TLE_LINE1":"1 46794U 20074BH  21268.69014566 -.00000039  00000-0  16311-4 0  9998","PERIAPSIS":"545.893","ECCENTRICITY":"0.00019010","PERIOD":"95.592","RA_OF_ASC_NODE":"61.0229","MEAN_ANOMALY":"258.1418","MEAN_MOTION":"15.06401442","ARG_OF_PERICENTER":"101.9784","SEMIMAJOR_AXIS":"6925.344","BSTAR":"0.00001631100000","NORAD_CAT_ID":"46794","REF_FRAME":"TEME","MEAN_ELEMENT_THEORY":"SGP4","TLE_LINE2":"2 46794  53.0551  61.0229 0001901 101.9784 258.1418 15.06401442 51600","RCS_SIZE":"LARGE","DECAY_DATE":null},{"INCLINATION":"53.0519","SITE":"AFETR","LAUNCH_DATE":"2020-10-24","TIME_SYSTEM":"UTC","APOAPSIS":"444.993","FILE":"3128274","EPOCH":"2021-09-25T14:14:41.555328","CLASSIFICATION_TYPE":"U","REV_AT_EPOCH":"5219","GP_ID":"185506604","MEAN_MOTION_DDOT":"0.0000000000000","MEAN_MOTION_DOT":"0.00013043","CENTER_NAME":"EARTH","ELEMENT_SET_NO":"999","TLE_LINE2":"2 46795  53.0519  18.6267 0007711 345.3693  14.7088 15.42160574 52195","DECAY_DATE":null,"RCS_SIZE":"LARGE","ARG_OF_PERICENTER":"345.3693","MEAN_MOTION":"15.42160574","BSTAR":"0.00030843000000","SEMIMAJOR_AXIS":"6817.871","NORAD_CAT_ID":"46795","MEAN_ELEMENT_THEORY":"SGP4","REF_FRAME":"TEME","PERIOD":"93.375","MEAN_ANOMALY":"14.7088","RA_OF_ASC_NODE":"18.6267","OBJECT_TYPE":"PAYLOAD","OBJECT_ID":"2020-074BJ","TLE_LINE1":"1 46795U 20074BJ  21268.59353652  .00013043  00000-0  30843-3 0  9993","PERIAPSIS":"434.479","OBJECT_NAME":"STARLINK-1943","ECCENTRICITY":"0.00077110","EPHEMERIS_TYPE":"0","COUNTRY_CODE":"US"},{"INCLINATION":"53.0560","SITE":"AFETR","LAUNCH_DATE":"2020-10-24","TIME_SYSTEM":"UTC","CLASSIFICATION_TYPE":"U","APOAPSIS":"548.518","FILE":"3128274","EPOCH":"2021-09-25T15:57:58.100256","REV_AT_EPOCH":"5173","MEAN_MOTION_DDOT":"0.0000000000000","GP_ID":"185507356","MEAN_MOTION_DOT":"-0.00000609","CENTER_NAME":"EARTH","ELEMENT_SET_NO":"999","TLE_LINE2":"2 46796  53.0560  51.1201 0001923 103.2992 256.8212 15.06408790 51736","RCS_SIZE":"LARGE","DECAY_DATE":null,"MEAN_MOTION":"15.06408790","ARG_OF_PERICENTER":"103.2992","BSTAR":"-0.00002196500000","SEMIMAJOR_AXIS":"6925.322","NORAD_CAT_ID":"46796","MEAN_ELEMENT_THEORY":"SGP4","REF_FRAME":"TEME","PERIOD":"95.592","RA_OF_ASC_NODE":"51.1201","MEAN_ANOMALY":"256.8212","OBJECT_ID":"2020-074BK","OBJECT_TYPE":"PAYLOAD","EPHEMERIS_TYPE":"0","COUNTRY_CODE":"US","OBJECT_NAME":"STARLINK-1944","TLE_LINE1":"1 46796U 20074BK  21268.66525579 -.00000609  00000-0 -21965-4 0  9993","PERIAPSIS":"545.855","ECCENTRICITY":"0.00019230"},{"REV_AT_EPOCH":"5205","EPOCH":"2021-09-25T18:41:36.703392","FILE":"3128274","APOAPSIS":"496.858","CLASSIFICATION_TYPE":"U","LAUNCH_DATE":"2020-10-24","TIME_SYSTEM":"UTC","SITE":"AFETR","INCLINATION":"53.0577","ELEMENT_SET_NO":"999","CENTER_NAME":"EARTH","MEAN_MOTION_DOT":"0.00274974","GP_ID":"185507606","MEAN_MOTION_DDOT":"0.0000000000000","MEAN_ELEMENT_THEORY":"SGP4","REF_FRAME":"TEME","SEMIMAJOR_AXIS":"6873.488","BSTAR":"0.01097400000000","NORAD_CAT_ID":"46797","ARG_OF_PERICENTER":"130.8660","MEAN_MOTION":"15.23480858","DECAY_DATE":null,"RCS_SIZE":"LARGE","TLE_LINE2":"2 46797  53.0577  29.6793 0002190 130.8660 229.2526 15.23480858 52058","PERIAPSIS":"493.848","TLE_LINE1":"1 46797U 20074BL  21268.77889703  .00274974  00000-0  10974-1 0  9999","OBJECT_NAME":"STARLINK-1947","ECCENTRICITY":"0.00021900","COUNTRY_CODE":"US","EPHEMERIS_TYPE":"0","OBJECT_TYPE":"PAYLOAD","OBJECT_ID":"2020-074BL","MEAN_ANOMALY":"229.2526","RA_OF_ASC_NODE":"29.6793","PERIOD":"94.520"},{"MEAN_MOTION_DDOT":"0.0000000000000","GP_ID":"185505854","MEAN_MOTION_DOT":"-0.00000164","CENTER_NAME":"EARTH","ELEMENT_SET_NO":"999","INCLINATION":"53.0545","SITE":"AFETR","LAUNCH_DATE":"2020-10-24","TIME_SYSTEM":"UTC","CLASSIFICATION_TYPE":"U","APOAPSIS":"548.628","FILE":"3128274","EPOCH":"2021-09-25T18:19:16.908960","REV_AT_EPOCH":"5140","PERIOD":"95.592","RA_OF_ASC_NODE":"75.6927","MEAN_ANOMALY":"260.3328","OBJECT_TYPE":"PAYLOAD","OBJECT_ID":"2020-074BM","EPHEMERIS_TYPE":"0","COUNTRY_CODE":"US","OBJECT_NAME":"STARLINK-1948","TLE_LINE1":"1 46798U 20074BM  21268.76339015 -.00000164  00000-0  79187-5 0  9999","PERIAPSIS":"545.826","ECCENTRICITY":"0.00020230","TLE_LINE2":"2 46798  53.0545  75.6927 0002023  99.7890 260.3328 15.06395637 51402","DECAY_DATE":null,"RCS_SIZE":"LARGE","MEAN_MOTION":"15.06395637","ARG_OF_PERICENTER":"99.7890","BSTAR":"0.00000791870000","SEMIMAJOR_AXIS":"6925.362","NORAD_CAT_ID":"46798","MEAN_ELEMENT_THEORY":"SGP4","REF_FRAME":"TEME"},{"MEAN_ELEMENT_THEORY":"SGP4","REF_FRAME":"TEME","NORAD_CAT_ID":"47122","SEMIMAJOR_AXIS":"6925.320","BSTAR":"0.00006614400000","MEAN_MOTION":"15.06409174","ARG_OF_PERICENTER":"97.2214","RCS_SIZE":"LARGE","DECAY_DATE":null,"TLE_LINE2":"2 47122  53.0556  41.1907 0001630  97.2214 262.8960 15.06409174 46751","COUNTRY_CODE":"US","EPHEMERIS_TYPE":"0","PERIAPSIS":"546.057","TLE_LINE1":"1 47122U 20088A   21268.65143719  .00000704  00000-0  66144-4 0  9995","OBJECT_NAME":"STARLINK-1777","ECCENTRICITY":"0.00016300","OBJECT_TYPE":"PAYLOAD","OBJECT_ID":"2020-088A","RA_OF_ASC_NODE":"41.1907","MEAN_ANOMALY":"262.8960","PERIOD":"95.592","REV_AT_EPOCH":"4675","CLASSIFICATION_TYPE":"U","EPOCH":"2021-09-25T15:38:04.173216","FILE":"3128274","APOAPSIS":"548.314","LAUNCH_DATE":"2020-11-25","TIME_SYSTEM":"UTC","SITE":"AFETR","INCLINATION":"53.0556","ELEMENT_SET_NO":"999","CENTER_NAME":"EARTH","MEAN_MOTION_DOT":"0.00000704","MEAN_MOTION_DDOT":"0.0000000000000","GP_ID":"185505892"},{"INCLINATION":"53.0564","SITE":"AFETR","TIME_SYSTEM":"UTC","LAUNCH_DATE":"2020-11-25","CLASSIFICATION_TYPE":"U","FILE":"3128274","EPOCH":"2021-09-25T15:17:28.982400","APOAPSIS":"548.138","REV_AT_EPOCH":"4668","MEAN_MOTION_DDOT":"0.0000000000000","GP_ID":"185506142","MEAN_MOTION_DOT":"-0.00000048","ELEMENT_SET_NO":"999","CENTER_NAME":"EARTH","TLE_LINE2":"2 47124  53.0564  46.2646 0001293  98.6535 261.4601 15.06390611 46688","RCS_SIZE":"LARGE","DECAY_DATE":null,"MEAN_MOTION":"15.06390611","ARG_OF_PERICENTER":"98.6535","MEAN_ELEMENT_THEORY":"SGP4","REF_FRAME":"TEME","SEMIMAJOR_AXIS":"6925.377","NORAD_CAT_ID":"47124","BSTAR":"0.00001564500000","PERIOD":"95.593","RA_OF_ASC_NODE":"46.2646","MEAN_ANOMALY":"261.4601","OBJECT_ID":"2020-088C","OBJECT_TYPE":"PAYLOAD","COUNTRY_CODE":"US","EPHEMERIS_TYPE":"0","TLE_LINE1":"1 47124U 20088C   21268.63714100 -.00000048  00000-0  15645-4 0  9995","OBJECT_NAME":"STARLINK-1785","PERIAPSIS":"546.347","ECCENTRICITY":"0.00012930"},{"TLE_LINE2":"2 47126  53.0569  41.0788 0001294  97.0991 263.0145 15.06404292 46766","RCS_SIZE":"LARGE","DECAY_DATE":null,"MEAN_MOTION":"15.06404292","ARG_OF_PERICENTER":"97.0991","MEAN_ELEMENT_THEORY":"SGP4","REF_FRAME":"TEME","BSTAR":"0.00002379400000","SEMIMAJOR_AXIS":"6925.335","NORAD_CAT_ID":"47126","PERIOD":"95.592","RA_OF_ASC_NODE":"41.0788","MEAN_ANOMALY":"263.0145","OBJECT_ID":"2020-088E","OBJECT_TYPE":"PAYLOAD","COUNTRY_CODE":"US","EPHEMERIS_TYPE":"0","ECCENTRICITY":"0.00012940","TLE_LINE1":"1 47126U 20088E   21268.67724829  .00000073  00000-0  23794-4 0  9991","PERIAPSIS":"546.304","OBJECT_NAME":"STARLINK-1812","INCLINATION":"53.0569","SITE":"AFETR","TIME_SYSTEM":"UTC","LAUNCH_DATE":"2020-11-25","CLASSIFICATION_TYPE":"U","EPOCH":"2021-09-25T16:15:14.252256","FILE":"3128274","APOAPSIS":"548.097","REV_AT_EPOCH":"4676","MEAN_MOTION_DDOT":"0.0000000000000","GP_ID":"185506894","MEAN_MOTION_DOT":"0.00000073","ELEMENT_SET_NO":"999","CENTER_NAME":"EARTH"},{"MEAN_MOTION_DOT":"0.00710953","CENTER_NAME":"EARTH","ELEMENT_SET_NO":"999","MEAN_MOTION_DDOT":"0.0002173200000","GP_ID":"185508653","CLASSIFICATION_TYPE":"U","APOAPSIS":"300.792","FILE":"3128275","EPOCH":"2021-09-25T21:45:50.913792","REV_AT_EPOCH":"4812","INCLINATION":"53.0536","SITE":"AFETR","LAUNCH_DATE":"2020-11-25","TIME_SYSTEM":"UTC","OBJECT_ID":"2020-088F","OBJECT_TYPE":"PAYLOAD","EPHEMERIS_TYPE":"0","COUNTRY_CODE":"US","OBJECT_NAME":"STARLINK-1836","TLE_LINE1":"1 47127U 20088F   21268.90683928  .00710953  21732-3  20487-2 0  9999","PERIAPSIS":"289.953","ECCENTRICITY":"0.00081210","PERIOD":"90.426","RA_OF_ASC_NODE":"327.8995","MEAN_ANOMALY":"80.6707","MEAN_MOTION":"15.92470957","ARG_OF_PERICENTER":"279.7738","NORAD_CAT_ID":"47127","SEMIMAJOR_AXIS":"6673.508","BSTAR":"0.00204870000000","MEAN_ELEMENT_THEORY":"SGP4","REF_FRAME":"TEME","TLE_LINE2":"2 47127  53.0536 327.8995 0008121 279.7738  80.6707 15.92470957 48125","DECAY_DATE":null,"RCS_SIZE":"LARGE"},{"CLASSIFICATION_TYPE":"U","EPOCH":"2021-09-25T13:38:40.379424","FILE":"3128274","APOAPSIS":"551.996","REV_AT_EPOCH":"4702","SITE":"AFETR","INCLINATION":"53.0551","LAUNCH_DATE":"2020-11-25","TIME_SYSTEM":"UTC","MEAN_MOTION_DOT":"-0.00001167","ELEMENT_SET_NO":"999","CENTER_NAME":"EARTH","MEAN_MOTION_DDOT":"0.0000000000000","GP_ID":"185506393","MEAN_MOTION":"15.06396760","ARG_OF_PERICENTER":"55.5659","REF_FRAME":"TEME","MEAN_ELEMENT_THEORY":"SGP4","SEMIMAJOR_AXIS":"6925.358","BSTAR":"-0.00005924900000","NORAD_CAT_ID":"47128","TLE_LINE2":"2 47128  53.0551  21.5536 0006892  55.5659 304.5980 15.06396760 47020","DECAY_DATE":null,"RCS_SIZE":"LARGE","OBJECT_TYPE":"PAYLOAD","OBJECT_ID":"2020-088G","COUNTRY_CODE":"US","EPHEMERIS_TYPE":"0","PERIAPSIS":"542.451","TLE_LINE1":"1 47128U 20088G   21268.56852291 -.00001167  00000-0 -59249-4 0  9997","ECCENTRICITY":"0.00068920","OBJECT_NAME":"STARLINK-1837","PERIOD":"95.592","RA_OF_ASC_NODE":"21.5536","MEAN_ANOMALY":"304.5980"}];
